{"type": "FeatureCollection", "features": [ {"type": "Feature", "properties": {"norad_id": 30702, "name": "FENGYUN 1C DEB", "group": "fengyun-1c-debris", "lat": -69.7497762828604, "lon": 163.73644488196362, "alt_km": 852.9749914001723, "timestamp": "2025-12-14T16:47:40.961910+00:00", "meta": {"OBJECT_NAME": "FENGYUN 1C DEB", "OBJECT_ID": "1999-025ARL", "EPOCH": "2025-12-14T00:20:10.161600", "MEAN_MOTION": 14.0359575, "ECCENTRICITY": 0.00686139, "INCLINATION": 98.7694, "RA_OF_ASC_NODE": 7.8088, "ARG_OF_PERICENTER": 298.1644, "MEAN_ANOMALY": 90.7656, "EPHEMERIS_TYPE": 0, "CLASSIFICATION_TYPE": "U", "NORAD_CAT_ID": 30702, "ELEMENT_SET_NO": 999, "REV_AT_EPOCH": 96180, "BSTAR": 0.00097367219, "MEAN_MOTION_DOT": 1.517e-05, "MEAN_MOTION_DDOT": 0}, "tle": {"line1": "1 30702U 99025ARL 25348.01400650  .00001517  00000+0  97367-3 0  9993", "line2": "2 30702  98.7694   7.8088 0068613 298.1644  90.7656 14.03595750961802"}}, "geometry": {"type": "Point", "coordinates": [163.73644488196362, -69.7497762828604]}}, {"type": "Feature", "properties": {"norad_id": 30703, "name": "FENGYUN 1C DEB", "group": "fengyun-1c-debris", "lat": 72.6402817946648, "lon": -175.20302138946724, "alt_km": 905.2726563952265, "timestamp": "2025-12-14T16:47:40.961920+00:00", "meta": {"OBJECT_NAME": "FENGYUN 1C DEB", "OBJECT_ID": "1999-025ARM", "EPOCH": "2025-12-13T21:59:00.499200", "MEAN_MOTION": 14.19333809, "ECCENTRICITY": 0.0117589, "INCLINATION": 99.1422, "RA_OF_ASC_NODE": 332.9827, "ARG_OF_PERICENTER": 288.75, "MEAN_ANOMALY": 133.3043, "EPHEMERIS_TYPE": 0, "CLASSIFICATION_TYPE": "U", "NORAD_CAT_ID": 30703, "ELEMENT_SET_NO": 999, "REV_AT_EPOCH": 96557, "BSTAR": 0.0014421849, "MEAN_MOTION_DOT": 3.198e-05, "MEAN_MOTION_DDOT": 0}, "tle": {"line1": "1 30703U 99025ARM 25347.91597800  .00003198  00000+0  14422-2 0  9993", "line2": "2 30703  99.1422 332.9827 0117589 288.7500 133.3043 14.19333809965577"}}, "geometry": {"type": "Point", "coordinates": [-175.20302138946724, 72.6402817946648]}}, {"type": "Feature", "properties": {"norad_id": 30704, "name": "FENGYUN 1C DEB", "group": "fengyun-1c-debris", "lat": -72.28825414039932, "lon": 16.66920688942495, "alt_km": 952.2473424413083, "timestamp": "2025-12-14T16:47:40.961931+00:00", "meta": {"OBJECT_NAME": "FENGYUN 1C DEB", "OBJECT_ID": "1999-025ARN", "EPOCH": "2025-12-14T00:21:03.034944", "MEAN_MOTION": 14.02049935, "ECCENTRICITY": 0.00817237, "INCLINATION": 98.8726, "RA_OF_ASC_NODE": 346.7207, "ARG_OF_PERICENTER": 96.3522, "MEAN_ANOMALY": 332.8857, "EPHEMERIS_TYPE": 0, "CLASSIFICATION_TYPE": "U", "NORAD_CAT_ID": 30704, "ELEMENT_SET_NO": 999, "REV_AT_EPOCH": 96129, "BSTAR": 0.0005628472, "MEAN_MOTION_DOT": 8.42e-06, "MEAN_MOTION_DDOT": 0}, "tle": {"line1": "1 30704U 99025ARN 25348.01461846  .00000842  00000+0  56285-3 0  9993", "line2": "2 30704  98.8726 346.7207 0081723  96.3522 332.8857 14.02049935961293"}}, "geometry": {"type": "Point", "coordinates": [16.66920688942495, -72.28825414039932]}}, {"type": "Feature", "properties": {"norad_id": 30705, "name": "FENGYUN 1C DEB", "group": "fengyun-1c-debris", "lat": -13.111303950412045, "lon": -89.44706358165097, "alt_km": 945.68851509665, "timestamp": "2025-12-14T16:47:40.961941+00:00", "meta": {"OBJECT_NAME": "FENGYUN 1C DEB", "OBJECT_ID": "1999-025ARP", "EPOCH": "2025-12-12T06:36:51.432192", "MEAN_MOTION": 13.8131694, "ECCENTRICITY": 0.01998378, "INCLINATION": 102.1799, "RA_OF_ASC_NODE": 90.3171, "ARG_OF_PERICENTER": 283.2492, "MEAN_ANOMALY": 103.156, "EPHEMERIS_TYPE": 0, "CLASSIFICATION_TYPE": "U", "NORAD_CAT_ID": 30705, "ELEMENT_SET_NO": 999, "REV_AT_EPOCH": 94003, "BSTAR": 0.0034153268, "MEAN_MOTION_DOT": 4.155e-05, "MEAN_MOTION_DDOT": 0}, "tle": {"line1": "1 30705U 99025ARP 25346.27559528  .00004155  00000+0  34153-2 0  9995", "line2": "2 30705 102.1799  90.3171 0199837 283.2492 103.1560 13.81316940940032"}}, "geometry": {"type": "Point", "coordinates": [-89.44706358165097, -13.111303950412045]}}, {"type": "Feature", "properties": {"norad_id": 30706, "name": "FENGYUN 1C DEB", "group": "fengyun-1c-debris", "lat": 80.88073403256347, "lon": 147.4294627807825, "alt_km": 779.9225493306885, "timestamp": "2025-12-14T16:47:40.961951+00:00", "meta": {"OBJECT_NAME": "FENGYUN 1C DEB", "OBJECT_ID": "1999-025ARQ", "EPOCH": "2025-12-13T10:04:05.126592", "MEAN_MOTION": 14.2642939, "ECCENTRICITY": 0.0026599, "INCLINATION": 99.0653, "RA_OF_ASC_NODE": 242.0512, "ARG_OF_PERICENTER": 126.2506, "MEAN_ANOMALY": 234.1136, "EPHEMERIS_TYPE": 0, "CLASSIFICATION_TYPE": "U", "NORAD_CAT_ID": 30706, "ELEMENT_SET_NO": 999, "REV_AT_EPOCH": 97637, "BSTAR": 0.0012833354, "MEAN_MOTION_DOT": 3.053e-05, "MEAN_MOTION_DDOT": 0}, "tle": {"line1": "1 30706U 99025ARQ 25347.41950378  .00003053  00000+0  12833-2 0  9998", "line2": "2 30706  99.0653 242.0512 0026599 126.2506 234.1136 14.26429390976371"}}, "geometry": {"type": "Point", "coordinates": [147.4294627807825, 80.88073403256347]}}, {"type": "Feature", "properties": {"norad_id": 30707, "name": "FENGYUN 1C DEB", "group": "fengyun-1c-debris", "lat": -35.717444976780776, "lon": 50.07298596658351, "alt_km": 812.5853647526947, "timestamp": "2025-12-14T16:47:40.961962+00:00", "meta": {"OBJECT_NAME": "FENGYUN 1C DEB", "OBJECT_ID": "1999-025ARR", "EPOCH": "2025-12-13T21:01:23.189376", "MEAN_MOTION": 14.2669733, "ECCENTRICITY": 0.00276867, "INCLINATION": 99.4135, "RA_OF_ASC_NODE": 42.3368, "ARG_OF_PERICENTER": 66.7304, "MEAN_ANOMALY": 348.5225, "EPHEMERIS_TYPE": 0, "CLASSIFICATION_TYPE": "U", "NORAD_CAT_ID": 30707, "ELEMENT_SET_NO": 999, "REV_AT_EPOCH": 96819, "BSTAR": 0.001807651, "MEAN_MOTION_DOT": 4.342e-05, "MEAN_MOTION_DDOT": 0}, "tle": {"line1": "1 30707U 99025ARR 25347.87596284  .00004342  00000+0  18077-2 0  9999", "line2": "2 30707  99.4135  42.3368 0027686  66.7304 348.5225 14.26697330968194"}}, "geometry": {"type": "Point", "coordinates": [50.07298596658351, -35.717444976780776]}}, {"type": "Feature", "properties": {"norad_id": 30708, "name": "FENGYUN 1C DEB", "group": "fengyun-1c-debris", "lat": -72.6814016945752, "lon": 31.649558515873245, "alt_km": 859.823824634329, "timestamp": "2025-12-14T16:47:40.961972+00:00", "meta": {"OBJECT_NAME": "FENGYUN 1C DEB", "OBJECT_ID": "1999-025ARS", "EPOCH": "2025-12-14T00:24:33.532128", "MEAN_MOTION": 14.1217978, "ECCENTRICITY": 0.00081264, "INCLINATION": 98.6904, "RA_OF_ASC_NODE": 1.6147, "ARG_OF_PERICENTER": 190.8571, "MEAN_ANOMALY": 225.192, "EPHEMERIS_TYPE": 0, "CLASSIFICATION_TYPE": "U", "NORAD_CAT_ID": 30708, "ELEMENT_SET_NO": 999, "REV_AT_EPOCH": 96854, "BSTAR": 0.00018982639, "MEAN_MOTION_DOT": 3.06e-06, "MEAN_MOTION_DDOT": 0}, "tle": {"line1": "1 30708U 99025ARS 25348.01705477  .00000306  00000+0  18983-3 0  9996", "line2": "2 30708  98.6904   1.6147 0008126 190.8571 225.1920 14.12179780968546"}}, "geometry": {"type": "Point", "coordinates": [31.649558515873245, -72.6814016945752]}}, {"type": "Feature", "properties": {"norad_id": 30709, "name": "FENGYUN 1C DEB", "group": "fengyun-1c-debris", "lat": -8.743519854587058, "lon": -31.867805913864647, "alt_km": 833.8241936775194, "timestamp": "2025-12-14T16:47:40.961982+00:00", "meta": {"OBJECT_NAME": "FENGYUN 1C DEB", "OBJECT_ID": "1999-025ART", "EPOCH": "2025-12-13T22:12:06.176736", "MEAN_MOTION": 14.17496086, "ECCENTRICITY": 0.00824296, "INCLINATION": 99.1443, "RA_OF_ASC_NODE": 325.9158, "ARG_OF_PERICENTER": 266.783, "MEAN_ANOMALY": 92.391, "EPHEMERIS_TYPE": 0, "CLASSIFICATION_TYPE": "U", "NORAD_CAT_ID": 30709, "ELEMENT_SET_NO": 999, "REV_AT_EPOCH": 96013, "BSTAR": 0.0028357599, "MEAN_MOTION_DOT": 5.904e-05, "MEAN_MOTION_DDOT": 0}, "tle": {"line1": "1 30709U 99025ART 25347.92507149  .00005904  00000+0  28358-2 0  9997", "line2": "2 30709  99.1443 325.9158 0082429 266.7830  92.3910 14.17496086960130"}}, "geometry": {"type": "Point", "coordinates": [-31.867805913864647, -8.743519854587058]}}, {"type": "Feature", "properties": {"norad_id": 30710, "name": "FENGYUN 1C DEB", "group": "fengyun-1c-debris", "lat": 58.05942915171917, "lon": -142.64623155899267, "alt_km": 752.8581532225635, "timestamp": "2025-12-14T16:47:40.961993+00:00", "meta": {"OBJECT_NAME": "FENGYUN 1C DEB", "OBJECT_ID": "1999-025ARU", "EPOCH": "2025-12-13T23:21:55.806048", "MEAN_MOTION": 13.9415774, "ECCENTRICITY": 0.02236792, "INCLINATION": 102.7459, "RA_OF_ASC_NODE": 237.6434, "ARG_OF_PERICENTER": 80.3174, "MEAN_ANOMALY": 297.8306, "EPHEMERIS_TYPE": 0, "CLASSIFICATION_TYPE": "U", "NORAD_CAT_ID": 30710, "ELEMENT_SET_NO": 999, "REV_AT_EPOCH": 94806, "BSTAR": 0.002734439, "MEAN_MOTION_DOT": 4.394e-05, "MEAN_MOTION_DDOT": 0}, "tle": {"line1": "1 30710U 99025ARU 25347.97356257  .00004394  00000+0  27344-2 0  9992", "line2": "2 30710 102.7459 237.6434 0223679  80.3174 297.8306 13.94157740948065"}}, "geometry": {"type": "Point", "coordinates": [-142.64623155899267, 58.05942915171917]}}, {"type": "Feature", "properties": {"norad_id": 30714, "name": "FENGYUN 1C DEB", "group": "fengyun-1c-debris", "lat": 67.41484398903752, "lon": -120.86942956403139, "alt_km": 922.7998684829663, "timestamp": "2025-12-14T16:47:40.962003+00:00", "meta": {"OBJECT_NAME": "FENGYUN 1C DEB", "OBJECT_ID": "1999-025ARY", "EPOCH": "2025-12-13T22:17:38.694048", "MEAN_MOTION": 14.03294049, "ECCENTRICITY": 0.00666294, "INCLINATION": 98.8372, "RA_OF_ASC_NODE": 36.4189, "ARG_OF_PERICENTER": 279.3097, "MEAN_ANOMALY": 259.5763, "EPHEMERIS_TYPE": 0, "CLASSIFICATION_TYPE": "U", "NORAD_CAT_ID": 30714, "ELEMENT_SET_NO": 999, "REV_AT_EPOCH": 96009, "BSTAR": 0.00064496444, "MEAN_MOTION_DOT": 9.83e-06, "MEAN_MOTION_DDOT": 0}, "tle": {"line1": "1 30714U 99025ARY 25347.92892007  .00000983  00000+0  64496-3 0  9999", "line2": "2 30714  98.8372  36.4189 0066629 279.3097 259.5763 14.03294049960098"}}, "geometry": {"type": "Point", "coordinates": [-120.86942956403139, 67.41484398903752]}}]}